STARLINK-1434           
1 45712U 20035BH  26068.24137979  .00054112  00000+0  20295-2 0  9995
2 45712  53.0547  22.1128 0005343  88.0400 272.1210 15.26724568319325
STARLINK-31628          
1 59342U 24057Y   26068.33757157  .00000281  00000+0  19748-4 0  9994
2 59342  43.0018 189.1939 0001615 264.7725  95.2943 15.27576972109785
